[{"OBJECT_NAME":"OBJECT J","OBJECT_ID":"2023-085J","EPOCH":"2026-03-09T22:47:59.920512","MEAN_MOTION":15.31507187,"ECCENTRICITY":0.00067028,"INCLINATION":97.4828,"RA_OF_ASC_NODE":180.1819,"ARG_OF_PERICENTER":41.7877,"MEAN_ANOMALY":318.3875,"EPHEMERIS_TYPE":0,"CLASSIFICATION_TYPE":"U","NORAD_CAT_ID":57012,"ELEMENT_SET_NO":999,"REV_AT_EPOCH":15156,"BSTAR":0.00064525349,"MEAN_MOTION_DOT":0.00019595,"MEAN_MOTION_DDOT":0},{"OBJECT_NAME":"STARLINK-35656","OBJECT_ID":"2025-257M","EPOCH":"2026-03-09T16:35:23.049600","MEAN_MOTION":15.30200233,"ECCENTRICITY":5.98e-5,"INCLINATION":53.1589,"RA_OF_ASC_NODE":219.8493,"ARG_OF_PERICENTER":71.1473,"MEAN_ANOMALY":288.9592,"EPHEMERIS_TYPE":0,"CLASSIFICATION_TYPE":"U","NORAD_CAT_ID":66391,"ELEMENT_SET_NO":999,"REV_AT_EPOCH":1979,"BSTAR":0.00072513138,"MEAN_MOTION_DOT":0.00021179,"MEAN_MOTION_DDOT":0}]
